{
  "links" : {
    "next" : "https://api.nasa.gov/neo/rest/v1/feed?start_date=2013-07-16&end_date=2013-07-16&detailed=true&api_key=t0TVs3DtDT2H8Oy2Zy8m2eVrNsAVKAexjcZXUckd",
    "prev" : "https://api.nasa.gov/neo/rest/v1/feed?start_date=2013-07-14&end_date=2013-07-14&detailed=true&api_key=t0TVs3DtDT2H8Oy2Zy8m2eVrNsAVKAexjcZXUckd",
    "self" : "https://api.nasa.gov/neo/rest/v1/feed?start_date=2013-07-15&end_date=2013-07-15&detailed=true&api_key=t0TVs3DtDT2H8Oy2Zy8m2eVrNsAVKAexjcZXUckd"
  },
  "element_count" : 6,
  "near_earth_objects" : {
    "2013-07-15" : [ {
      "links" : {
        "self" : "https://api.nasa.gov/neo/rest/v1/neo/3607530?api_key=t0TVs3DtDT2H8Oy2Zy8m2eVrNsAVKAexjcZXUckd"
      },
      "neo_reference_id" : "3607530",
      "name" : "(2012 PB20)",
      "nasa_jpl_url" : "http://ssd.jpl.nasa.gov/sbdb.cgi?sstr=3607530",
      "absolute_magnitude_h" : 24.9,
      "estimated_diameter" : {
        "kilometers" : {
          "estimated_diameter_min" : 0.0278326768,
          "estimated_diameter_max" : 0.0622357573
        },
        "meters" : {
          "estimated_diameter_min" : 27.8326768072,
          "estimated_diameter_max" : 62.2357573367
        },
        "miles" : {
          "estimated_diameter_min" : 0.0172944182,
          "estimated_diameter_max" : 0.0386714948
        },
        "feet" : {
          "estimated_diameter_min" : 91.3145593761,
          "estimated_diameter_max" : 204.1855621004
        }
      },
      "is_potentially_hazardous_asteroid" : false,
      "close_approach_data" : [ {
        "close_approach_date" : "2013-07-15",
        "epoch_date_close_approach" : 1373871600000,
        "relative_velocity" : {
          "kilometers_per_second" : "14.3765108066",
          "kilometers_per_hour" : "51755.438903859",
          "miles_per_hour" : "32158.8170233451"
        },
        "miss_distance" : {
          "astronomical" : "0.4021649068",
          "lunar" : "156.4421539307",
          "kilometers" : "60163016",
          "miles" : "37383564"
        },
        "orbiting_body" : "Earth"
      } ],
      "orbital_data" : {
        "orbit_id" : "16",
        "orbit_determination_date" : "2017-04-06 08:49:18",
        "orbit_uncertainty" : "4",
        "minimum_orbit_intersection" : ".000736007",
        "jupiter_tisserand_invariant" : "5.828",
        "epoch_osculation" : "2458000.5",
        "eccentricity" : ".09487193325736569",
        "semi_major_axis" : "1.054141206183641",
        "inclination" : "5.838694680092424",
        "ascending_node_longitude" : "142.9143992401694",
        "orbital_period" : "395.3180205658226",
        "perihelion_distance" : ".9541327920267482",
        "perihelion_argument" : "50.007410713002",
        "aphelion_distance" : "1.154149620340535",
        "perihelion_time" : "2457996.593739154510",
        "mean_anomaly" : "3.557272452096902",
        "mean_motion" : ".9106592193412496",
        "equinox" : "J2000"
      }
    }, {
      "links" : {
        "self" : "https://api.nasa.gov/neo/rest/v1/neo/3645087?api_key=t0TVs3DtDT2H8Oy2Zy8m2eVrNsAVKAexjcZXUckd"
      },
      "neo_reference_id" : "3645087",
      "name" : "(2013 OG)",
      "nasa_jpl_url" : "http://ssd.jpl.nasa.gov/sbdb.cgi?sstr=3645087",
      "absolute_magnitude_h" : 20.6,
      "estimated_diameter" : {
        "kilometers" : {
          "estimated_diameter_min" : 0.2016299194,
          "estimated_diameter_max" : 0.4508582062
        },
        "meters" : {
          "estimated_diameter_min" : 201.6299194428,
          "estimated_diameter_max" : 450.8582061718
        },
        "miles" : {
          "estimated_diameter_min" : 0.1252869847,
          "estimated_diameter_max" : 0.2801502144
        },
        "feet" : {
          "estimated_diameter_min" : 661.5155049046,
          "estimated_diameter_max" : 1479.1936371367
        }
      },
      "is_potentially_hazardous_asteroid" : false,
      "close_approach_data" : [ {
        "close_approach_date" : "2013-07-15",
        "epoch_date_close_approach" : 1373871600000,
        "relative_velocity" : {
          "kilometers_per_second" : "10.1983659438",
          "kilometers_per_hour" : "36714.117397522",
          "miles_per_hour" : "22812.724779588"
        },
        "miss_distance" : {
          "astronomical" : "0.1367490981",
          "lunar" : "53.195400238",
          "kilometers" : "20457374",
          "miles" : "12711623"
        },
        "orbiting_body" : "Earth"
      } ],
      "orbital_data" : {
        "orbit_id" : "38",
        "orbit_determination_date" : "2017-04-06 08:45:20",
        "orbit_uncertainty" : "5",
        "minimum_orbit_intersection" : ".139798",
        "jupiter_tisserand_invariant" : "3.303",
        "epoch_osculation" : "2458000.5",
        "eccentricity" : ".5495734200633769",
        "semi_major_axis" : "2.35675618233376",
        "inclination" : "13.20294734107342",
        "ascending_node_longitude" : "268.5810673650424",
        "orbital_period" : "1321.509864770693",
        "perihelion_distance" : "1.061545626953088",
        "perihelion_argument" : "54.14704906036962",
        "aphelion_distance" : "3.651966737714432",
        "perihelion_time" : "2457840.889648413577",
        "mean_anomaly" : "43.48036144329712",
        "mean_motion" : ".2724156736147155",
        "equinox" : "J2000"
      }
    }, {
      "links" : {
        "self" : "https://api.nasa.gov/neo/rest/v1/neo/3724245?api_key=t0TVs3DtDT2H8Oy2Zy8m2eVrNsAVKAexjcZXUckd"
      },
      "neo_reference_id" : "3724245",
      "name" : "(2015 OQ21)",
      "nasa_jpl_url" : "http://ssd.jpl.nasa.gov/sbdb.cgi?sstr=3724245",
      "absolute_magnitude_h" : 27.9,
      "estimated_diameter" : {
        "kilometers" : {
          "estimated_diameter_min" : 0.0069912523,
          "estimated_diameter_max" : 0.0156329154
        },
        "meters" : {
          "estimated_diameter_min" : 6.9912523225,
          "estimated_diameter_max" : 15.6329154409
        },
        "miles" : {
          "estimated_diameter_min" : 0.0043441614,
          "estimated_diameter_max" : 0.0097138403
        },
        "feet" : {
          "estimated_diameter_min" : 22.9371802696,
          "estimated_diameter_max" : 51.289094295
        }
      },
      "is_potentially_hazardous_asteroid" : false,
      "close_approach_data" : [ {
        "close_approach_date" : "2013-07-15",
        "epoch_date_close_approach" : 1373871600000,
        "relative_velocity" : {
          "kilometers_per_second" : "23.1603783827",
          "kilometers_per_hour" : "83377.3621776682",
          "miles_per_hour" : "51807.4504042294"
        },
        "miss_distance" : {
          "astronomical" : "0.4772241455",
          "lunar" : "185.6401977539",
          "kilometers" : "71391720",
          "miles" : "44360756"
        },
        "orbiting_body" : "Earth"
      } ],
      "orbital_data" : {
        "orbit_id" : "9",
        "orbit_determination_date" : "2017-04-06 08:32:44",
        "orbit_uncertainty" : "3",
        "minimum_orbit_intersection" : ".00229886",
        "jupiter_tisserand_invariant" : "7.319",
        "epoch_osculation" : "2458000.5",
        "eccentricity" : ".3642295987331517",
        "semi_major_axis" : ".7891752091462928",
        "inclination" : "1.598096348955278",
        "ascending_node_longitude" : "125.4813532238678",
        "orbital_period" : "256.0699271458094",
        "perihelion_distance" : ".5017342393887876",
        "perihelion_argument" : "328.8557370843354",
        "aphelion_distance" : "1.076616178903798",
        "perihelion_time" : "2458088.190200681836",
        "mean_anomaly" : "236.7193297653987",
        "mean_motion" : "1.405865983610842",
        "equinox" : "J2000"
      }
    } ]
  }
}